CCSDS_OMM_VERS = 2.0
CREATION_DATE  = 
ORIGINATOR     = 

OBJECT_NAME    = STARLINK-35671
OBJECT_ID      = 2025-257N
CENTER_NAME    = EARTH
REF_FRAME      = TEME
TIME_SYSTEM    = UTC
MEAN_ELEMENT_THEORY = SGP/SGP4

EPOCH          = 2025-11-18T16:00:05.000256
MEAN_MOTION    = 15.86961927
ECCENTRICITY   = .0001257
INCLINATION    = 53.1535
RA_OF_ASC_NODE = 20.5128
ARG_OF_PERICENTER = 55.1582
MEAN_ANOMALY   = 35.7806

EPHEMERIS_TYPE = 0
CLASSIFICATION_TYPE = U
NORAD_CAT_ID   = 66392
ELEMENT_SET_NO = 999
REV_AT_EPOCH   = 262
BSTAR          = -.61071E-2
MEAN_MOTION_DOT = -.1406526E-1
MEAN_MOTION_DDOT = 0

CCSDS_OMM_VERS = 2.0
CREATION_DATE  = 
ORIGINATOR     = 

OBJECT_NAME    = STARLINK-35652
OBJECT_ID      = 2025-257P
CENTER_NAME    = EARTH
REF_FRAME      = TEME
TIME_SYSTEM    = UTC
MEAN_ELEMENT_THEORY = SGP/SGP4

EPOCH          = 2025-11-18T16:00:05.000256
MEAN_MOTION    = 15.86936700
ECCENTRICITY   = .0001131
INCLINATION    = 53.1535
RA_OF_ASC_NODE = 20.5182
ARG_OF_PERICENTER = 55.6162
MEAN_ANOMALY   = 32.7710

EPHEMERIS_TYPE = 0
CLASSIFICATION_TYPE = U
NORAD_CAT_ID   = 66393
ELEMENT_SET_NO = 999
REV_AT_EPOCH   = 262
BSTAR          = -.60425E-2
MEAN_MOTION_DOT = -.1391961E-1
MEAN_MOTION_DDOT = 0

CCSDS_OMM_VERS = 2.0
CREATION_DATE  = 
ORIGINATOR     = 

OBJECT_NAME    = STARLINK-35672
OBJECT_ID      = 2025-257Q
CENTER_NAME    = EARTH
REF_FRAME      = TEME
TIME_SYSTEM    = UTC
MEAN_ELEMENT_THEORY = SGP/SGP4

EPOCH          = 2025-11-18T16:00:05.000256
MEAN_MOTION    = 15.86982535
ECCENTRICITY   = .0001064
INCLINATION    = 53.1534
RA_OF_ASC_NODE = 20.5076
ARG_OF_PERICENTER = 51.2973
MEAN_ANOMALY   = 42.1091

EPHEMERIS_TYPE = 0
CLASSIFICATION_TYPE = U
NORAD_CAT_ID   = 66394
ELEMENT_SET_NO = 999
REV_AT_EPOCH   = 262
BSTAR          = -.61215E-2
MEAN_MOTION_DOT = -.1410524E-1
MEAN_MOTION_DDOT = 0

CCSDS_OMM_VERS = 2.0
CREATION_DATE  = 
ORIGINATOR     = 

OBJECT_NAME    = STARLINK-35681
OBJECT_ID      = 2025-257R
CENTER_NAME    = EARTH
REF_FRAME      = TEME
TIME_SYSTEM    = UTC
MEAN_ELEMENT_THEORY = SGP/SGP4

EPOCH          = 2025-11-18T16:00:05.000256
MEAN_MOTION    = 15.87005743
ECCENTRICITY   = .0001087
INCLINATION    = 53.1536
RA_OF_ASC_NODE = 20.5021
ARG_OF_PERICENTER = 53.5918
MEAN_ANOMALY   = 42.4734

EPHEMERIS_TYPE = 0
CLASSIFICATION_TYPE = U
NORAD_CAT_ID   = 66395
ELEMENT_SET_NO = 999
REV_AT_EPOCH   = 246
BSTAR          = -.62E-2
MEAN_MOTION_DOT = -.1427665E-1
MEAN_MOTION_DDOT = 0

CCSDS_OMM_VERS = 2.0
CREATION_DATE  = 
ORIGINATOR     = 

OBJECT_NAME    = STARLINK-35669
OBJECT_ID      = 2025-257S
CENTER_NAME    = EARTH
REF_FRAME      = TEME
TIME_SYSTEM    = UTC
MEAN_ELEMENT_THEORY = SGP/SGP4

EPOCH          = 2025-11-18T16:00:05.000256
MEAN_MOTION    = 15.87044384
ECCENTRICITY   = .000101
INCLINATION    = 53.1534
RA_OF_ASC_NODE = 20.4977
ARG_OF_PERICENTER = 54.8700
MEAN_ANOMALY   = 43.1923

EPHEMERIS_TYPE = 0
CLASSIFICATION_TYPE = U
NORAD_CAT_ID   = 66396
ELEMENT_SET_NO = 999
REV_AT_EPOCH   = 262
BSTAR          = -.62693E-2
MEAN_MOTION_DOT = -.1443811E-1
MEAN_MOTION_DDOT = 0

CCSDS_OMM_VERS = 2.0
CREATION_DATE  = 
ORIGINATOR     = 

OBJECT_NAME    = STARLINK-35510
OBJECT_ID      = 2025-257T
CENTER_NAME    = EARTH
REF_FRAME      = TEME
TIME_SYSTEM    = UTC
MEAN_ELEMENT_THEORY = SGP/SGP4

EPOCH          = 2025-11-18T16:00:05.000256
MEAN_MOTION    = 15.87032178
ECCENTRICITY   = .0001269
INCLINATION    = 53.1532
RA_OF_ASC_NODE = 20.4881
ARG_OF_PERICENTER = 57.7876
MEAN_ANOMALY   = 44.8707

EPHEMERIS_TYPE = 0
CLASSIFICATION_TYPE = U
NORAD_CAT_ID   = 66397
ELEMENT_SET_NO = 999
REV_AT_EPOCH   = 262
BSTAR          = -.67333E-2
MEAN_MOTION_DOT = -.1568301E-1
MEAN_MOTION_DDOT = 0

CCSDS_OMM_VERS = 2.0
CREATION_DATE  = 
ORIGINATOR     = 

OBJECT_NAME    = STARLINK-35642
OBJECT_ID      = 2025-257U
CENTER_NAME    = EARTH
REF_FRAME      = TEME
TIME_SYSTEM    = UTC
MEAN_ELEMENT_THEORY = SGP/SGP4

EPOCH          = 2025-11-18T16:00:05.000256
MEAN_MOTION    = 15.87068420
ECCENTRICITY   = .0001213
INCLINATION    = 53.1534
RA_OF_ASC_NODE = 20.4838
ARG_OF_PERICENTER = 54.0385
MEAN_ANOMALY   = 50.5704

EPHEMERIS_TYPE = 0
CLASSIFICATION_TYPE = U
NORAD_CAT_ID   = 66398
ELEMENT_SET_NO = 999
REV_AT_EPOCH   = 262
BSTAR          = -.68214E-2
MEAN_MOTION_DOT = -.1588758E-1
MEAN_MOTION_DDOT = 0

CCSDS_OMM_VERS = 2.0
CREATION_DATE  = 
ORIGINATOR     = 

OBJECT_NAME    = STARLINK-35657
OBJECT_ID      = 2025-257V
CENTER_NAME    = EARTH
REF_FRAME      = TEME
TIME_SYSTEM    = UTC
MEAN_ELEMENT_THEORY = SGP/SGP4

EPOCH          = 2025-11-18T16:00:05.000256
MEAN_MOTION    = 15.87094754
ECCENTRICITY   = .0001216
INCLINATION    = 53.1537
RA_OF_ASC_NODE = 20.4795
ARG_OF_PERICENTER = 52.9536
MEAN_ANOMALY   = 53.8194

EPHEMERIS_TYPE = 0
CLASSIFICATION_TYPE = U
NORAD_CAT_ID   = 66399
ELEMENT_SET_NO = 999
REV_AT_EPOCH   = 262
BSTAR          = -.69061E-2
MEAN_MOTION_DOT = -.1607849E-1
MEAN_MOTION_DDOT = 0

CCSDS_OMM_VERS = 2.0
CREATION_DATE  = 
ORIGINATOR     = 

OBJECT_NAME    = STARLINK-35667
OBJECT_ID      = 2025-257W
CENTER_NAME    = EARTH
REF_FRAME      = TEME
TIME_SYSTEM    = UTC
MEAN_ELEMENT_THEORY = SGP/SGP4

EPOCH          = 2025-11-18T16:00:05.000256
MEAN_MOTION    = 15.87133904
ECCENTRICITY   = .0001212
INCLINATION    = 53.1535
RA_OF_ASC_NODE = 20.4699
ARG_OF_PERICENTER = 58.4198
MEAN_ANOMALY   = 52.9519

EPHEMERIS_TYPE = 0
CLASSIFICATION_TYPE = U
NORAD_CAT_ID   = 66400
ELEMENT_SET_NO = 999
REV_AT_EPOCH   = 262
BSTAR          = -.7056E-2
MEAN_MOTION_DOT = -.164106E-1
MEAN_MOTION_DDOT = 0

CCSDS_OMM_VERS = 2.0
CREATION_DATE  = 
ORIGINATOR     = 

OBJECT_NAME    = STARLINK-35668
OBJECT_ID      = 2025-257X
CENTER_NAME    = EARTH
REF_FRAME      = TEME
TIME_SYSTEM    = UTC
MEAN_ELEMENT_THEORY = SGP/SGP4

EPOCH          = 2025-11-18T16:00:05.000256
MEAN_MOTION    = 15.87153112
ECCENTRICITY   = .0001275
INCLINATION    = 53.1532
RA_OF_ASC_NODE = 20.4651
ARG_OF_PERICENTER = 52.3556
MEAN_ANOMALY   = 61.1618

EPHEMERIS_TYPE = 0
CLASSIFICATION_TYPE = U
NORAD_CAT_ID   = 66401
ELEMENT_SET_NO = 999
REV_AT_EPOCH   = 262
BSTAR          = -.70978E-2
MEAN_MOTION_DOT = -.1650945E-1
MEAN_MOTION_DDOT = 0

CCSDS_OMM_VERS = 2.0
CREATION_DATE  = 
ORIGINATOR     = 

OBJECT_NAME    = STARLINK-35644
OBJECT_ID      = 2025-257Y
CENTER_NAME    = EARTH
REF_FRAME      = TEME
TIME_SYSTEM    = UTC
MEAN_ELEMENT_THEORY = SGP/SGP4

EPOCH          = 2025-11-18T16:00:05.000256
MEAN_MOTION    = 15.87119572
ECCENTRICITY   = .0001106
INCLINATION    = 53.1533
RA_OF_ASC_NODE = 20.4744
ARG_OF_PERICENTER = 50.9474
MEAN_ANOMALY   = 58.1182

EPHEMERIS_TYPE = 0
CLASSIFICATION_TYPE = U
NORAD_CAT_ID   = 66402
ELEMENT_SET_NO = 999
REV_AT_EPOCH   = 262
BSTAR          = -.70067E-2
MEAN_MOTION_DOT = -.1629945E-1
MEAN_MOTION_DDOT = 0

CCSDS_OMM_VERS = 2.0
CREATION_DATE  = 
ORIGINATOR     = 

OBJECT_NAME    = STARLINK-35602
OBJECT_ID      = 2025-257Z
CENTER_NAME    = EARTH
REF_FRAME      = TEME
TIME_SYSTEM    = UTC
MEAN_ELEMENT_THEORY = SGP/SGP4

EPOCH          = 2025-11-18T16:00:05.000256
MEAN_MOTION    = 15.87188603
ECCENTRICITY   = .0001112
INCLINATION    = 53.1532
RA_OF_ASC_NODE = 20.4617
ARG_OF_PERICENTER = 51.4343
MEAN_ANOMALY   = 63.7186

EPHEMERIS_TYPE = 0
CLASSIFICATION_TYPE = U
NORAD_CAT_ID   = 66403
ELEMENT_SET_NO = 999
REV_AT_EPOCH   = 262
BSTAR          = -.7098E-2
MEAN_MOTION_DOT = -.1653383E-1
MEAN_MOTION_DDOT = 0

CCSDS_OMM_VERS = 2.0
CREATION_DATE  = 
ORIGINATOR     = 

OBJECT_NAME    = STARLINK-35691
OBJECT_ID      = 2025-257AA
CENTER_NAME    = EARTH
REF_FRAME      = TEME
TIME_SYSTEM    = UTC
MEAN_ELEMENT_THEORY = SGP/SGP4

EPOCH          = 2025-11-18T16:00:05.000256
MEAN_MOTION    = 15.87196997
ECCENTRICITY   = .0001146
INCLINATION    = 53.1532
RA_OF_ASC_NODE = 20.4568
ARG_OF_PERICENTER = 52.7649
MEAN_ANOMALY   = 64.7892

EPHEMERIS_TYPE = 0
CLASSIFICATION_TYPE = U
NORAD_CAT_ID   = 66404
ELEMENT_SET_NO = 999
REV_AT_EPOCH   = 262
BSTAR          = -.71365E-2
MEAN_MOTION_DOT = -.1661824E-1
MEAN_MOTION_DDOT = 0

CCSDS_OMM_VERS = 2.0
CREATION_DATE  = 
ORIGINATOR     = 

OBJECT_NAME    = STARLINK-35683
OBJECT_ID      = 2025-257AB
CENTER_NAME    = EARTH
REF_FRAME      = TEME
TIME_SYSTEM    = UTC
MEAN_ELEMENT_THEORY = SGP/SGP4

EPOCH          = 2025-11-18T16:00:05.000256
MEAN_MOTION    = 15.87204378
ECCENTRICITY   = .0001156
INCLINATION    = 53.1530
RA_OF_ASC_NODE = 20.4513
ARG_OF_PERICENTER = 53.8055
MEAN_ANOMALY   = 66.2739

EPHEMERIS_TYPE = 0
CLASSIFICATION_TYPE = U
NORAD_CAT_ID   = 66405
ELEMENT_SET_NO = 999
REV_AT_EPOCH   = 246
BSTAR          = -.72006E-2
MEAN_MOTION_DOT = -.1675305E-1
MEAN_MOTION_DDOT = 0

CCSDS_OMM_VERS = 2.0
CREATION_DATE  = 
ORIGINATOR     = 

OBJECT_NAME    = STARLINK-34840
OBJECT_ID      = 2025-257AC
CENTER_NAME    = EARTH
REF_FRAME      = TEME
TIME_SYSTEM    = UTC
MEAN_ELEMENT_THEORY = SGP/SGP4

EPOCH          = 2025-11-18T16:00:05.000256
MEAN_MOTION    = 15.87240223
ECCENTRICITY   = .00011958
INCLINATION    = 53.1529
RA_OF_ASC_NODE = 20.4367
ARG_OF_PERICENTER = 58.0516
MEAN_ANOMALY   = 69.0699

EPHEMERIS_TYPE = 0
CLASSIFICATION_TYPE = U
NORAD_CAT_ID   = 66406
ELEMENT_SET_NO = 999
REV_AT_EPOCH   = 256
BSTAR          = -.73324489E-2
MEAN_MOTION_DOT = -.1704523E-1
MEAN_MOTION_DDOT = 0

